[
    {
        "CCSDS_OMM_VERS": "3.0",
        "COMMENT": "GENERATED VIA SPACE-TRACK.ORG API",
        "CREATION_DATE": "2025-05-03T17:28:03",
        "ORIGINATOR": "18 SPCS",
        "OBJECT_NAME": "NAVSTAR 77 (USA 289)",
        "OBJECT_ID": "2018-109A",
        "CENTER_NAME": "EARTH",
        "REF_FRAME": "TEME",
        "TIME_SYSTEM": "UTC",
        "MEAN_ELEMENT_THEORY": "SGP4",
        "EPOCH": "2025-05-03T06:28:58.471680",
        "MEAN_MOTION": "2.00568557",
        "ECCENTRICITY": "0.00331470",
        "INCLINATION": "55.4445",
        "RA_OF_ASC_NODE": "108.3735",
        "ARG_OF_PERICENTER": "197.8774",
        "MEAN_ANOMALY": "226.1658",
        "EPHEMERIS_TYPE": "0",
        "CLASSIFICATION_TYPE": "U",
        "NORAD_CAT_ID": "43873",
        "ELEMENT_SET_NO": "999",
        "REV_AT_EPOCH": "4685",
        "BSTAR": "0.00000000000000",
        "MEAN_MOTION_DOT": "0.00000038",
        "MEAN_MOTION_DDOT": "0.0000000000000",
        "SEMIMAJOR_AXIS": "26559.911",
        "PERIOD": "717.959",
        "APOAPSIS": "20269.814",
        "PERIAPSIS": "20093.737",
        "OBJECT_TYPE": "PAYLOAD",
        "RCS_SIZE": "LARGE",
        "COUNTRY_CODE": "US",
        "LAUNCH_DATE": "2018-12-23",
        "SITE": "AFETR",
        "DECAY_DATE": null,
        "FILE": "4717971",
        "GP_ID": "286762136",
        "TLE_LINE0": "0 NAVSTAR 77 (USA 289)",
        "TLE_LINE1": "1 43873U 18109A   25123.27012120  .00000038  00000-0  00000-0 0  9993",
        "TLE_LINE2": "2 43873  55.4445 108.3735 0033147 197.8774 226.1658  2.00568557 46853"
    }
]